OPS 6582 (TRANSIT 5B-5) 
1 00965U 64083D   23186.61500806  .00000036  00000+0  37657-4 0  9997
2 00965  90.0322 196.7552 0040884 186.0122 294.2380 13.56828507898049
OSCAR 7 (AO-7)          
1 07530U 74089B   23187.76257434 -.00000048  00000+0 -10329-4 0  9994
2 07530 101.9473 174.5719 0012489  27.9604 145.3951 12.53665165225869
UOSAT 2 (UO-11)         
1 14781U 84021B   23188.20558261  .00001432  00000+0  17393-3 0  9992
2 14781  97.6580 164.3618 0009401 129.0185 231.1869 14.84971529118119
NOAA 9                  
1 15427U 84123A   23187.43573108  .00000133  00000+0  89981-4 0  9994
2 15427  99.0900 171.9046 0015229 154.0167 359.4454 14.16378436991195
LUSAT (LO-19)           
1 20442U 90005G   23188.20647046  .00000203  00000+0  90620-4 0  9992
2 20442  98.8445 165.1505 0012753 117.4212 242.8270 14.33274642748270
ITAMSAT (IO-26)         
1 22826U 93061D   23187.09434967  .00000131  00000+0  67483-4 0  9998
2 22826  98.8342 230.1511 0008976   6.2344 353.8948 14.30679563553511
RADIO ROSTO (RS-15)     
1 23439U 94085A   23185.11902922 -.00000011  00000+0  89746-3 0  9991
2 23439  64.8151 248.3024 0162118 207.2981 151.9352 11.27575152174520
JAS-2 (FO-29)           
1 24278U 96046B   23186.37968255 -.00000019  00000+0  16724-4 0  9997
2 24278  98.5291 162.4546 0350473   9.8974 350.8841 13.53148500327647
NOAA 15                 
1 25338U 98030A   23188.14938921  .00000272  00000+0  13121-3 0  9991
2 25338  98.6044 216.8637 0009190 253.4269 106.5902 14.26347595308108
TECHSAT 1B (GO-32)      
1 25397U 98043D   23188.17708967  .00000105  00000+0  65551-4 0  9998
2 25397  98.8697 145.8067 0002439  82.5969 277.5486 14.23885323298392
ISS (ZARYA)             
1 25544U 98067A   23188.51662157  .00010281  00000+0  19057-3 0  9991
2 25544  51.6406 227.7630 0000247  61.6810  99.2425 15.49589703404949
ORSTED                  
1 25635U 99008B   23188.13225974  .00000587  00000+0  14415-3 0  9999
2 25635  96.4662 327.8026 0137787  33.2696 327.7071 14.49111480286248
PHASE 3D (AO-40)        
1 26609U 00072B   23186.25260122 -.00000150  00000+0  00000+0 0  9997
2 26609   6.1141 178.1161 7913213 174.2334 209.9832  1.25587351104109
PCSAT (NO-44)           
1 26931U 01043C   23187.63157710  .00000184  00000+0  10142-3 0  9993
2 26931  67.0502 146.6180 0008077 269.4267  90.5909 14.30937942136528
SAUDISAT 1C (SO-50)     
1 27607U 02058C   23187.66077709  .00000832  00000+0  13254-3 0  9990
2 27607  64.5527 205.2245 0067204 220.8027 138.8034 14.77375052105311
CUTE-1 (CO-55)          
1 27844U 03031E   23187.94032802  .00000362  00000+0  18072-3 0  9992
2 27844  98.6770 194.9070 0011027  71.1376 289.0997 14.22807153 38570
CUBESAT XI-IV (CO-57)   
1 27848U 03031J   23187.25476600  .00000289  00000+0  14946-3 0  9992
2 27848  98.6808 194.6400 0010981  86.2723 273.9711 14.22313951 38261
MOZHAYETS 4 (RS-22)     
1 27939U 03042A   23188.18129507  .00001244  00000+0  22336-3 0  9993
2 27939  98.2457 335.2944 0013691  75.5719  97.3162 14.68455874 57474
INMARSAT 4-F1           
1 28628U 05009A   23187.02586990 -.00000265  00000+0  00000+0 0  9992
2 28628   3.9275  38.6506 0002942  71.5753 326.3236  1.00271103 66863
NOAA 18                 
1 28654U 05018A   23188.17708849  .00000235  00000+0  14970-3 0  9998
2 28654  98.9093 262.4706 0013493 327.0253  33.0076 14.12965148934392
CUBESAT XI-V            
1 28895U 05043F   23187.32285771  .00001322  00000+0  25123-3 0  9993
2 28895  98.1561 319.2389 0016433  16.7352 343.4390 14.65737502943844
METOP-A                 
1 29499U 06044A   23187.70139583  .00001118  00000+0  15376-3 0  9999
2 29499  98.3996 248.6933 0192833 241.2723 217.7881 14.68633028869896
CARTOSAT-2 (IRS-P7)     
1 29710U 07001B   23187.82266506  .00048254  00000+0  60741-3 0  9996
2 29710  97.8956 327.0442 0094832 130.0028 230.9598 15.54153099895355
CAPE-1                  
1 31130U 07012P   23187.09632298  .00000916  00000+0  19675-3 0  9994
2 31130  98.3085 131.1761 0092837 183.3152 176.7444 14.58427835860975
CARTOSAT-2A             
1 32783U 08021A   23188.11968584  .00000945  00000+0  13579-3 0  9993
2 32783  97.9151 248.2600 0012454   8.7791 351.3636 14.78699245819861
CUTE-1.7+APD II (CO-65) 
1 32785U 08021C   23187.37310712  .00003329  00000+0  32981-3 0  9993
2 32785  97.7068 152.9191 0013307  46.1345 314.0971 14.92433925823751
COMPASS-1               
1 32787U 08021E   23188.17671321  .00007115  00000+0  55264-3 0  9996
2 32787  97.5845 164.2068 0008732 313.4158  46.6339 15.01598166825704
AAUSAT-II               
1 32788U 08021F   23187.17710081  .00007255  00000+0  52523-3 0  9993
2 32788  97.5594 166.1777 0005898 295.5452  64.5164 15.04270991826062
DELFI-C3 (DO-64)        
1 32789U 08021G   23187.03579766  .00057410  00000+0  14763-2 0  9993
2 32789  97.3001 208.4234 0007299  82.1135 278.0939 15.39044975830388
SEEDS II (CO-66)        
1 32791U 08021J   23186.45533452  .00004753  00000+0  41817-3 0  9996
2 32791  97.6558 157.3099 0011460   0.1909 359.9315 14.96930797824474
YUBILEINY (RS-30)       
1 32953U 08025A   23188.08347733  .00000045  00000+0  24840-3 0  9993
2 32953  82.5041 304.7192 0020515 139.7982 220.4619 12.43126278686125
FENGYUN 3A              
1 32958U 08026A   23188.09752463  .00000155  00000+0  94474-4 0  9993
2 32958  98.5559 141.2073 0008721 359.9528   0.1646 14.18886164782884
PRISM (HITOMI)          
1 33493U 09002B   23188.04472966  .00010085  00000+0  67757-3 0  9991
2 33493  98.2445 203.9594 0014938 346.3982  13.6839 15.06920124786740
STARS (KUKAI)           
1 33498U 09002G   23187.45234409  .00002367  00000+0  30395-3 0  9990
2 33498  98.1344  90.6215 0011877  91.4695 268.7878 14.82137539778684
KKS-1 (KISEKI)          
1 33499U 09002H   23187.63389502  .00001169  00000+0  17280-3 0  9993
2 33499  98.1710  80.1996 0009160 156.5021 203.6609 14.77134630777367
NOAA 19                 
1 33591U 09005A   23188.15328231  .00000231  00000+0  14921-3 0  9997
2 33591  99.0982 234.3981 0013888 182.5712 177.5390 14.12782291742769
SWISSCUBE               
1 35932U 09051B   23188.09579245  .00000987  00000+0  22660-3 0  9992
2 35932  98.5189  58.9225 0006530 313.2212  46.8440 14.57783540732151
BEESAT-1                
1 35933U 09051C   23187.23526414  .00000825  00000+0  19146-3 0  9994
2 35933  98.5118  59.3503 0005097 333.0060  27.0872 14.57682824732148
ITUPSAT1                
1 35935U 09051E   23188.11215637  .00000784  00000+0  18626-3 0  9992
2 35935  98.5219  60.1850 0007406 331.5022  28.5769 14.56730323731893
XIWANG-1 (HOPE-1)       
1 36122U 09072B   23187.84633630  .00000001  00000+0  11647-3 0  9998
2 36122 100.2387 151.1044 0007501 172.3726 187.7503 13.16384520651493
CARTOSAT-2B             
1 36795U 10035A   23188.15714055  .00000961  00000+0  13793-3 0  9990
2 36795  97.9095 248.1793 0014399  80.8305 279.4535 14.78675201700918
TISAT 1                 
1 36799U 10035E   23187.60433824  .00004299  00000+0  38362-3 0  9992
2 36799  98.1346  57.9973 0009251 271.2103  88.8058 14.96504654705339
FENGYUN 3B              
1 37214U 10059A   23188.15440000  .00000084  00000+0  68010-4 0  9998
2 37214  99.0829 205.8613 0022027 352.7626  86.6108 14.14353358655333
JUGNU                   
1 37839U 11058B   23188.19341381  .00000487  00000+0  11697-3 0  9992
2 37839  19.9624   1.5504 0018873  79.6738  76.7314 14.12972242606728
SRMSAT                  
1 37841U 11058D   23187.09630811  .00000444  00000+0  98500-4 0  9994
2 37841  19.9721  95.6937 0011779 238.9461 149.2869 14.10910537605709
M-CUBED & EXP-1 PRIME   
1 37855U 11061F   23187.40120075  .00027088  00000+0  82026-3 0  9992
2 37855 101.7065 159.9268 0115059 341.7646  17.9467 15.27832306639966
HORYU-2                 
1 38340U 12025D   23187.48023059  .00002363  00000+0  32928-3 0  9990
2 38340  98.1715 276.4464 0012044  78.7113 281.5450 14.78684389599356
METOP-B                 
1 38771U 12049A   23188.16380012  .00000157  00000+0  91837-4 0  9999
2 38771  98.6775 247.2038 0001051  83.4789   9.2549 14.21507344560384
SARAL                   
1 39086U 13009A   23187.80024001  .00000102  00000+0  53900-4 0  9998
2 39086  98.5479  12.8034 0001307 188.9449 171.1712 14.32230866541490
AAUSAT 3                
1 39087U 13009B   23187.98690901  .00000708  00000+0  25384-3 0  9992
2 39087  98.3810  22.5995 0011782 193.0360 167.0524 14.36836359542779
STRAND-1                
1 39090U 13009E   23187.37883876  .00000295  00000+0  11699-3 0  9999
2 39090  98.3881  20.2122 0008423 200.0181 160.0676 14.35622031542495
BRITE-AUSTRIA           
1 39091U 13009F   23187.30934817  .00000199  00000+0  83896-4 0  9997
2 39091  98.3910  19.3744 0009756 208.5833 151.4820 14.35502321542501
UNIBRITE                
1 39092U 13009G   23187.36540635  .00000204  00000+0  85903-4 0  9993
2 39092  98.3947  19.2696 0008753 202.9305 157.1491 14.35374327542460
SOMP                    
1 39134U 13015E   23188.09826067  .00138141  00000+0  12138-2 0  9994
2 39134  64.8435 216.1280 0018282 278.1910  81.7167 15.67926435566488
BEESAT-3                
1 39135U 13015F   23187.59521342  .00040003  00000+0  84131-3 0  9999
2 39135  64.8572 271.8044 0018899 250.7737 109.1358 15.44907535565362
BEESAT-2                
1 39136U 13015G   23186.70810936  .00031021  00000+0  72947-3 0  9994
2 39136  64.8681 286.6830 0028127 274.0569  85.7354 15.41447990565016
NEE-01 PEGASO           
1 39151U 13018B   23187.75779538  .00002200  00000+0  27737-3 0  9996
2 39151  98.0114 297.9636 0017352  89.0992 271.2209 14.82900283550595
CUBEBUG-1 (CAPITAN BETO)
1 39153U 13018D   23188.07738785  .00002961  00000+0  36160-3 0  9997
2 39153  98.0414 304.4384 0017011  82.4902 277.8243 14.83984835550826
ESTCUBE 1               
1 39161U 13021C   23188.17301451  .00001690  00000+0  26202-3 0  9991
2 39161  97.8713 259.8709 0007829 264.1920  95.8396 14.74401948546116
